0 COSMOS 1579 COOLANT
1 27638U 84069Y   13281.90328062  .00000058  00000-0  11818-3 0  4695
2 27638 065.0402 109.2757 0049953 182.3116 173.9307 13.90334486565779
